[{"OBJECT_NAME":"STARLINK-31213","OBJECT_ID":"2024-019H","EPOCH":"2026-03-09T13:30:58.734720","MEAN_MOTION":15.27576365,"ECCENTRICITY":0.00013594,"INCLINATION":43.0024,"RA_OF_ASC_NODE":249.5899,"ARG_OF_PERICENTER":272.271,"MEAN_ANOMALY":87.7986,"EPHEMERIS_TYPE":0,"CLASSIFICATION_TYPE":"U","NORAD_CAT_ID":58860,"ELEMENT_SET_NO":999,"REV_AT_EPOCH":11906,"BSTAR":2.2325467e-5,"MEAN_MOTION_DOT":3.52e-6,"MEAN_MOTION_DDOT":0},{"OBJECT_NAME":"COSMOS 2251 DEB","OBJECT_ID":"1993-036BPR","EPOCH":"2026-02-24T07:57:21.236256","MEAN_MOTION":15.23776337,"ECCENTRICITY":0.00166824,"INCLINATION":73.9787,"RA_OF_ASC_NODE":76.2838,"ARG_OF_PERICENTER":284.1156,"MEAN_ANOMALY":75.8189,"EPHEMERIS_TYPE":0,"CLASSIFICATION_TYPE":"U","NORAD_CAT_ID":37966,"ELEMENT_SET_NO":999,"REV_AT_EPOCH":86459,"BSTAR":0.0031189174,"MEAN_MOTION_DOT":0.00076101,"MEAN_MOTION_DDOT":0}]
